[{"OBJECT_NAME":"USA 283","OBJECT_ID":"2018-036A","EPOCH":"2026-04-02T10:05:01.709088","MEAN_MOTION":1.00269426,"ECCENTRICITY":6.9e-6,"INCLINATION":0.0207,"RA_OF_ASC_NODE":192.95,"ARG_OF_PERICENTER":211.2778,"MEAN_ANOMALY":71.8991,"EPHEMERIS_TYPE":0,"CLASSIFICATION_TYPE":"U","NORAD_CAT_ID":43339,"ELEMENT_SET_NO":999,"REV_AT_EPOCH":2453,"BSTAR":0,"MEAN_MOTION_DOT":0,"MEAN_MOTION_DDOT":0},{"OBJECT_NAME":"COSMOS 2526","OBJECT_ID":"2018-037A","EPOCH":"2026-04-02T06:37:59.072160","MEAN_MOTION":1.00272136,"ECCENTRICITY":3.494e-5,"INCLINATION":0.006,"RA_OF_ASC_NODE":187.4417,"ARG_OF_PERICENTER":255.5616,"MEAN_ANOMALY":335.1755,"EPHEMERIS_TYPE":0,"CLASSIFICATION_TYPE":"U","NORAD_CAT_ID":43432,"ELEMENT_SET_NO":999,"REV_AT_EPOCH":2919,"BSTAR":0,"MEAN_MOTION_DOT":-3.51e-6,"MEAN_MOTION_DDOT":0},{"OBJECT_NAME":"APSTAR-6C","OBJECT_ID":"2018-041A","EPOCH":"2026-04-04T21:13:54.241248","MEAN_MOTION":1.00268727,"ECCENTRICITY":0.0002422,"INCLINATION":0.0172,"RA_OF_ASC_NODE":9.2613,"ARG_OF_PERICENTER":356.8164,"MEAN_ANOMALY":279.6062,"EPHEMERIS_TYPE":0,"CLASSIFICATION_TYPE":"U","NORAD_CAT_ID":43450,"ELEMENT_SET_NO":999,"REV_AT_EPOCH":2907,"BSTAR":0,"MEAN_MOTION_DOT":0,"MEAN_MOTION_DDOT":0},{"OBJECT_NAME":"BANGABANDHUSAT-1","OBJECT_ID":"2018-044A","EPOCH":"2026-04-04T06:16:38.567136","MEAN_MOTION":1.00272753,"ECCENTRICITY":0.0002497,"INCLINATION":0.018,"RA_OF_ASC_NODE":195.9457,"ARG_OF_PERICENTER":192.5724,"MEAN_ANOMALY":17.318,"EPHEMERIS_TYPE":0,"CLASSIFICATION_TYPE":"U","NORAD_CAT_ID":43463,"ELEMENT_SET_NO":999,"REV_AT_EPOCH":2896,"BSTAR":0,"MEAN_MOTION_DOT":-3.63e-6,"MEAN_MOTION_DDOT":0},{"OBJECT_NAME":"SES-12","OBJECT_ID":"2018-049A","EPOCH":"2026-04-04T02:58:13.405728","MEAN_MOTION":1.00271563,"ECCENTRICITY":0.00016582,"INCLINATION":0.042,"RA_OF_ASC_NODE":45.956,"ARG_OF_PERICENTER":264.849,"MEAN_ANOMALY":21.1879,"EPHEMERIS_TYPE":0,"CLASSIFICATION_TYPE":"U","NORAD_CAT_ID":43488,"ELEMENT_SET_NO":999,"REV_AT_EPOCH":2867,"BSTAR":0,"MEAN_MOTION_DOT":-2.7e-6,"MEAN_MOTION_DDOT":0},{"OBJECT_NAME":"FENGYUN 2H","OBJECT_ID":"2018-050A","EPOCH":"2026-04-04T02:53:36.348576","MEAN_MOTION":1.00270557,"ECCENTRICITY":0.00012372,"INCLINATION":2.8403,"RA_OF_ASC_NODE":79.9578,"ARG_OF_PERICENTER":172.2028,"MEAN_ANOMALY":62.72,"EPHEMERIS_TYPE":0,"CLASSIFICATION_TYPE":"U","NORAD_CAT_ID":43491,"ELEMENT_SET_NO":999,"REV_AT_EPOCH":2869,"BSTAR":0,"MEAN_MOTION_DOT":-1.26e-6,"MEAN_MOTION_DDOT":0},{"OBJECT_NAME":"TELSTAR 19V","OBJECT_ID":"2018-059A","EPOCH":"2026-04-04T03:36:38.691648","MEAN_MOTION":1.00270471,"ECCENTRICITY":0.00016054,"INCLINATION":0.0205,"RA_OF_ASC_NODE":170.2259,"ARG_OF_PERICENTER":270.7967,"MEAN_ANOMALY":102.5896,"EPHEMERIS_TYPE":0,"CLASSIFICATION_TYPE":"U","NORAD_CAT_ID":43562,"ELEMENT_SET_NO":999,"REV_AT_EPOCH":2840,"BSTAR":0,"MEAN_MOTION_DOT":-2.81e-6,"MEAN_MOTION_DDOT":0},{"OBJECT_NAME":"TELKOM 4 (MERAH PUTIH)","OBJECT_ID":"2018-064A","EPOCH":"2026-04-04T01:19:07.909824","MEAN_MOTION":1.00272058,"ECCENTRICITY":0.0002854,"INCLINATION":0.0138,"RA_OF_ASC_NODE":137.2384,"ARG_OF_PERICENTER":281.9585,"MEAN_ANOMALY":260.952,"EPHEMERIS_TYPE":0,"CLASSIFICATION_TYPE":"U","NORAD_CAT_ID":43587,"ELEMENT_SET_NO":999,"REV_AT_EPOCH":2813,"BSTAR":0,"MEAN_MOTION_DOT":-3.45e-6,"MEAN_MOTION_DDOT":0},{"OBJECT_NAME":"TELSTAR 18V","OBJECT_ID":"2018-069A","EPOCH":"2026-04-04T06:00:38.398752","MEAN_MOTION":1.00271659,"ECCENTRICITY":0.00021923,"INCLINATION":0.0159,"RA_OF_ASC_NODE":238.2614,"ARG_OF_PERICENTER":135.007,"MEAN_ANOMALY":47.4456,"EPHEMERIS_TYPE":0,"CLASSIFICATION_TYPE":"U","NORAD_CAT_ID":43611,"ELEMENT_SET_NO":999,"REV_AT_EPOCH":2789,"BSTAR":0,"MEAN_MOTION_DOT":-2.94e-6,"MEAN_MOTION_DDOT":0},{"OBJECT_NAME":"AZERSPACE 2 (IS-38)","OBJECT_ID":"2018-074A","EPOCH":"2026-04-04T02:43:59.770272","MEAN_MOTION":1.00271589,"ECCENTRICITY":0.00015351,"INCLINATION":0.0026,"RA_OF_ASC_NODE":182.5545,"ARG_OF_PERICENTER":204.7795,"MEAN_ANOMALY":251.2061,"EPHEMERIS_TYPE":0,"CLASSIFICATION_TYPE":"U","NORAD_CAT_ID":43632,"ELEMENT_SET_NO":999,"REV_AT_EPOCH":2770,"BSTAR":0,"MEAN_MOTION_DOT":1.36e-6,"MEAN_MOTION_DDOT":0},{"OBJECT_NAME":"HORIZONS-3E","OBJECT_ID":"2018-074B","EPOCH":"2026-04-04T05:02:01.531680","MEAN_MOTION":1.00272627,"ECCENTRICITY":7.04e-5,"INCLINATION":0.0168,"RA_OF_ASC_NODE":32.8001,"ARG_OF_PERICENTER":294.4706,"MEAN_ANOMALY":109.7631,"EPHEMERIS_TYPE":0,"CLASSIFICATION_TYPE":"U","NORAD_CAT_ID":43633,"ELEMENT_SET_NO":999,"REV_AT_EPOCH":2759,"BSTAR":0,"MEAN_MOTION_DOT":-3.1e-7,"MEAN_MOTION_DDOT":0},{"OBJECT_NAME":"BEIDOU-3 G1","OBJECT_ID":"2018-085A","EPOCH":"2026-04-01T20:42:38.441952","MEAN_MOTION":1.00268589,"ECCENTRICITY":0.00020589,"INCLINATION":2.882,"RA_OF_ASC_NODE":99.4564,"ARG_OF_PERICENTER":12.9832,"MEAN_ANOMALY":168.3736,"EPHEMERIS_TYPE":0,"CLASSIFICATION_TYPE":"U","NORAD_CAT_ID":43683,"ELEMENT_SET_NO":999,"REV_AT_EPOCH":2729,"BSTAR":0,"MEAN_MOTION_DOT":-2.84e-6,"MEAN_MOTION_DDOT":0},{"OBJECT_NAME":"GSAT-29","OBJECT_ID":"2018-089A","EPOCH":"2026-04-04T04:29:27.155904","MEAN_MOTION":1.00273542,"ECCENTRICITY":0.00023857,"INCLINATION":0.0399,"RA_OF_ASC_NODE":80.7931,"ARG_OF_PERICENTER":301.8988,"MEAN_ANOMALY":292.206,"EPHEMERIS_TYPE":0,"CLASSIFICATION_TYPE":"U","NORAD_CAT_ID":43698,"ELEMENT_SET_NO":999,"REV_AT_EPOCH":2704,"BSTAR":0,"MEAN_MOTION_DOT":8.4e-7,"MEAN_MOTION_DDOT":0},{"OBJECT_NAME":"ES'HAIL 2","OBJECT_ID":"2018-090A","EPOCH":"2026-04-04T04:39:38.850624","MEAN_MOTION":1.0026915,"ECCENTRICITY":0.00012075,"INCLINATION":0.0194,"RA_OF_ASC_NODE":220.7704,"ARG_OF_PERICENTER":158.3279,"MEAN_ANOMALY":269.1593,"EPHEMERIS_TYPE":0,"CLASSIFICATION_TYPE":"U","NORAD_CAT_ID":43700,"ELEMENT_SET_NO":999,"REV_AT_EPOCH":2693,"BSTAR":0,"MEAN_MOTION_DOT":1.43e-6,"MEAN_MOTION_DDOT":0},{"OBJECT_NAME":"GEO-KOMPSAT-2A","OBJECT_ID":"2018-100A","EPOCH":"2026-04-04T06:08:38.620320","MEAN_MOTION":1.00273648,"ECCENTRICITY":0.00019825,"INCLINATION":0.0548,"RA_OF_ASC_NODE":45.6599,"ARG_OF_PERICENTER":16.4836,"MEAN_ANOMALY":350.8424,"EPHEMERIS_TYPE":0,"CLASSIFICATION_TYPE":"U","NORAD_CAT_ID":43823,"ELEMENT_SET_NO":999,"REV_AT_EPOCH":2688,"BSTAR":0,"MEAN_MOTION_DOT":-3.44e-6,"MEAN_MOTION_DDOT":0},{"OBJECT_NAME":"GSAT-11","OBJECT_ID":"2018-100B","EPOCH":"2026-04-04T05:33:38.759040","MEAN_MOTION":1.00271995,"ECCENTRICITY":0.00064739,"INCLINATION":0.0743,"RA_OF_ASC_NODE":261.3898,"ARG_OF_PERICENTER":163.0099,"MEAN_ANOMALY":285.5387,"EPHEMERIS_TYPE":0,"CLASSIFICATION_TYPE":"U","NORAD_CAT_ID":43824,"ELEMENT_SET_NO":999,"REV_AT_EPOCH":2673,"BSTAR":0,"MEAN_MOTION_DOT":-7.7e-7,"MEAN_MOTION_DDOT":0},{"OBJECT_NAME":"GSAT-7A","OBJECT_ID":"2018-105A","EPOCH":"2026-04-04T02:48:59.292288","MEAN_MOTION":1.00272423,"ECCENTRICITY":0.00023293,"INCLINATION":0.0286,"RA_OF_ASC_NODE":297.2056,"ARG_OF_PERICENTER":85.7071,"MEAN_ANOMALY":274.5589,"EPHEMERIS_TYPE":0,"CLASSIFICATION_TYPE":"U","NORAD_CAT_ID":43864,"ELEMENT_SET_NO":999,"REV_AT_EPOCH":2670,"BSTAR":0,"MEAN_MOTION_DOT":2.5e-7,"MEAN_MOTION_DDOT":0},{"OBJECT_NAME":"COSMOS 2533","OBJECT_ID":"2018-107A","EPOCH":"2026-04-04T04:33:49.237344","MEAN_MOTION":1.00271339,"ECCENTRICITY":4.479e-5,"INCLINATION":0.0329,"RA_OF_ASC_NODE":112.4058,"ARG_OF_PERICENTER":16.7453,"MEAN_ANOMALY":201.8351,"EPHEMERIS_TYPE":0,"CLASSIFICATION_TYPE":"U","NORAD_CAT_ID":43867,"ELEMENT_SET_NO":999,"REV_AT_EPOCH":2670,"BSTAR":0,"MEAN_MOTION_DOT":-3.9e-7,"MEAN_MOTION_DDOT":0},{"OBJECT_NAME":"TJS-3","OBJECT_ID":"2018-110A","EPOCH":"2026-04-03T16:47:09.610656","MEAN_MOTION":1.00340597,"ECCENTRICITY":0.0018142,"INCLINATION":2.3532,"RA_OF_ASC_NODE":81.3751,"ARG_OF_PERICENTER":347.472,"MEAN_ANOMALY":109.8481,"EPHEMERIS_TYPE":0,"CLASSIFICATION_TYPE":"U","NORAD_CAT_ID":43874,"ELEMENT_SET_NO":999,"REV_AT_EPOCH":2667,"BSTAR":0,"MEAN_MOTION_DOT":-2.81e-6,"MEAN_MOTION_DDOT":0},{"OBJECT_NAME":"ZHONGXING-2D","OBJECT_ID":"2019-001A","EPOCH":"2026-04-04T04:27:38.863872","MEAN_MOTION":1.00271967,"ECCENTRICITY":5.278e-5,"INCLINATION":0.0218,"RA_OF_ASC_NODE":104.9087,"ARG_OF_PERICENTER":219.6673,"MEAN_ANOMALY":64.8431,"EPHEMERIS_TYPE":0,"CLASSIFICATION_TYPE":"U","NORAD_CAT_ID":43920,"ELEMENT_SET_NO":999,"REV_AT_EPOCH":5333,"BSTAR":0,"MEAN_MOTION_DOT":0,"MEAN_MOTION_DDOT":0},{"OBJECT_NAME":"HELLAS-SAT 4 & SGS-1","OBJECT_ID":"2019-007A","EPOCH":"2026-04-03T23:16:57.128160","MEAN_MOTION":1.0027284,"ECCENTRICITY":0.00034998,"INCLINATION":0.0693,"RA_OF_ASC_NODE":125.9182,"ARG_OF_PERICENTER":9.4906,"MEAN_ANOMALY":85.1435,"EPHEMERIS_TYPE":0,"CLASSIFICATION_TYPE":"U","NORAD_CAT_ID":44034,"ELEMENT_SET_NO":999,"REV_AT_EPOCH":2662,"BSTAR":0,"MEAN_MOTION_DOT":1.51e-6,"MEAN_MOTION_DDOT":0},{"OBJECT_NAME":"GSAT-31","OBJECT_ID":"2019-007B","EPOCH":"2026-04-04T05:50:38.728320","MEAN_MOTION":1.00271818,"ECCENTRICITY":0.00038528,"INCLINATION":0.0199,"RA_OF_ASC_NODE":254.8394,"ARG_OF_PERICENTER":74.0415,"MEAN_ANOMALY":359.2004,"EPHEMERIS_TYPE":0,"CLASSIFICATION_TYPE":"U","NORAD_CAT_ID":44035,"ELEMENT_SET_NO":999,"REV_AT_EPOCH":2622,"BSTAR":0,"MEAN_MOTION_DOT":1.25e-6,"MEAN_MOTION_DDOT":0},{"OBJECT_NAME":"NUSANTARA SATU","OBJECT_ID":"2019-009A","EPOCH":"2026-04-04T05:39:38.842272","MEAN_MOTION":1.00271835,"ECCENTRICITY":0.00026156,"INCLINATION":0.0319,"RA_OF_ASC_NODE":139.1744,"ARG_OF_PERICENTER":310.0809,"MEAN_ANOMALY":334.2075,"EPHEMERIS_TYPE":0,"CLASSIFICATION_TYPE":"U","NORAD_CAT_ID":44048,"ELEMENT_SET_NO":999,"REV_AT_EPOCH":2602,"BSTAR":0,"MEAN_MOTION_DOT":-2.35e-6,"MEAN_MOTION_DDOT":0},{"OBJECT_NAME":"ZHONGXING-6C","OBJECT_ID":"2019-012A","EPOCH":"2026-04-04T06:33:37.745856","MEAN_MOTION":1.00274135,"ECCENTRICITY":0.0011007,"INCLINATION":0.0558,"RA_OF_ASC_NODE":54.6553,"ARG_OF_PERICENTER":342.0888,"MEAN_ANOMALY":24.6562,"EPHEMERIS_TYPE":0,"CLASSIFICATION_TYPE":"U","NORAD_CAT_ID":44067,"ELEMENT_SET_NO":999,"REV_AT_EPOCH":2599,"BSTAR":0,"MEAN_MOTION_DOT":-3.36e-6,"MEAN_MOTION_DDOT":0}]
